{
  "type": "FeatureCollection",
  "features": [
    {
      "type": "Feature",
      "properties": {
        "OBJECT_NAME": "COSMOS 2251 DEB",
        "OBJECT_ID": "1993-036R",
        "EPOCH": "2025-11-30T02:31:04.470240",
        "MEAN_MOTION": 13.58438437,
        "ECCENTRICITY": 0.0365707,
        "INCLINATION": 74.0688,
        "RA_OF_ASC_NODE": 240.2565,
        "ARG_OF_PERICENTER": 40.8036,
        "MEAN_ANOMALY": 58.8056,
        "EPHEMERIS_TYPE": 0,
        "CLASSIFICATION_TYPE": "U",
        "NORAD_CAT_ID": 33768,
        "ELEMENT_SET_NO": 999,
        "REV_AT_EPOCH": 83124,
        "BSTAR": 0.00039013,
        "MEAN_MOTION_DOT": 4.2e-06,
        "MEAN_MOTION_DDOT": 0,
        "norad_id": 33768,
        "name": "COSMOS 2251 DEB",
        "group": "cosmos-2251-debris",
        "longitude_deg": NaN,
        "latitude_deg": NaN,
        "alt_km": NaN,
        "orbit_class": "HEO",
        "timestamp": "2025-11-30T09:33:02.606551+00:00"
      },
      "geometry": {
        "type": "Point",
        "coordinates": [
          NaN,
          NaN
        ]
      }
    },
    {
      "type": "Feature",
      "properties": {
        "OBJECT_NAME": "COSMOS 2251 DEB",
        "OBJECT_ID": "1993-036U",
        "EPOCH": "2025-11-30T00:57:38.616192",
        "MEAN_MOTION": 14.70098734,
        "ECCENTRICITY": 0.0018031,
        "INCLINATION": 74.0447,
        "RA_OF_ASC_NODE": 195.3393,
        "ARG_OF_PERICENTER": 231.2143,
        "MEAN_ANOMALY": 258.2862,
        "EPHEMERIS_TYPE": 0,
        "CLASSIFICATION_TYPE": "U",
        "NORAD_CAT_ID": 33779,
        "ELEMENT_SET_NO": 999,
        "REV_AT_EPOCH": 88341,
        "BSTAR": 0.0012,
        "MEAN_MOTION_DOT": 7.207e-05,
        "MEAN_MOTION_DDOT": 0,
        "norad_id": 33779,
        "name": "COSMOS 2251 DEB",
        "group": "cosmos-2251-debris",
        "longitude_deg": NaN,
        "latitude_deg": NaN,
        "alt_km": NaN,
        "orbit_class": "HEO",
        "timestamp": "2025-11-30T09:33:02.606561+00:00"
      },
      "geometry": {
        "type": "Point",
        "coordinates": [
          NaN,
          NaN
        ]
      }
    },
    {
      "type": "Feature",
      "properties": {
        "OBJECT_NAME": "COSMOS 2251 DEB",
        "OBJECT_ID": "1993-036X",
        "EPOCH": "2025-11-30T00:27:17.735328",
        "MEAN_MOTION": 14.40388736,
        "ECCENTRICITY": 0.0020225,
        "INCLINATION": 74.0326,
        "RA_OF_ASC_NODE": 301.072,
        "ARG_OF_PERICENTER": 8.2942,
        "MEAN_ANOMALY": 55.4659,
        "EPHEMERIS_TYPE": 0,
        "CLASSIFICATION_TYPE": "U",
        "NORAD_CAT_ID": 33782,
        "ELEMENT_SET_NO": 999,
        "REV_AT_EPOCH": 87943,
        "BSTAR": 0.00050153,
        "MEAN_MOTION_DOT": 1.57e-05,
        "MEAN_MOTION_DDOT": 0,
        "norad_id": 33782,
        "name": "COSMOS 2251 DEB",
        "group": "cosmos-2251-debris",
        "longitude_deg": NaN,
        "latitude_deg": NaN,
        "alt_km": NaN,
        "orbit_class": "HEO",
        "timestamp": "2025-11-30T09:33:02.606568+00:00"
      },
      "geometry": {
        "type": "Point",
        "coordinates": [
          NaN,
          NaN
        ]
      }
    },
    {
      "type": "Feature",
      "properties": {
        "OBJECT_NAME": "COSMOS 2251 DEB",
        "OBJECT_ID": "1993-036AA",
        "EPOCH": "2025-11-29T18:32:20.607936",
        "MEAN_MOTION": 14.70002858,
        "ECCENTRICITY": 0.002102,
        "INCLINATION": 73.8664,
        "RA_OF_ASC_NODE": 85.3385,
        "ARG_OF_PERICENTER": 28.8871,
        "MEAN_ANOMALY": 98.2396,
        "EPHEMERIS_TYPE": 0,
        "CLASSIFICATION_TYPE": "U",
        "NORAD_CAT_ID": 33785,
        "ELEMENT_SET_NO": 999,
        "REV_AT_EPOCH": 88316,
        "BSTAR": 0.0016958,
        "MEAN_MOTION_DOT": 0.00010188,
        "MEAN_MOTION_DDOT": 0,
        "norad_id": 33785,
        "name": "COSMOS 2251 DEB",
        "group": "cosmos-2251-debris",
        "longitude_deg": NaN,
        "latitude_deg": NaN,
        "alt_km": NaN,
        "orbit_class": "HEO",
        "timestamp": "2025-11-30T09:33:02.606574+00:00"
      },
      "geometry": {
        "type": "Point",
        "coordinates": [
          NaN,
          NaN
        ]
      }
    },
    {
      "type": "Feature",
      "properties": {
        "OBJECT_NAME": "COSMOS 2251 DEB",
        "OBJECT_ID": "1993-036AE",
        "EPOCH": "2025-11-30T03:23:03.003072",
        "MEAN_MOTION": 13.88748693,
        "ECCENTRICITY": 0.0240543,
        "INCLINATION": 74.0631,
        "RA_OF_ASC_NODE": 108.787,
        "ARG_OF_PERICENTER": 227.1821,
        "MEAN_ANOMALY": 319.9126,
        "EPHEMERIS_TYPE": 0,
        "CLASSIFICATION_TYPE": "U",
        "NORAD_CAT_ID": 33789,
        "ELEMENT_SET_NO": 999,
        "REV_AT_EPOCH": 84920,
        "BSTAR": 0.0007906,
        "MEAN_MOTION_DOT": 1.177e-05,
        "MEAN_MOTION_DDOT": 0,
        "norad_id": 33789,
        "name": "COSMOS 2251 DEB",
        "group": "cosmos-2251-debris",
        "longitude_deg": NaN,
        "latitude_deg": NaN,
        "alt_km": NaN,
        "orbit_class": "HEO",
        "timestamp": "2025-11-30T09:33:02.606582+00:00"
      },
      "geometry": {
        "type": "Point",
        "coordinates": [
          NaN,
          NaN
        ]
      }
    },
    {
      "type": "Feature",
      "properties": {
        "OBJECT_NAME": "COSMOS 2251 DEB",
        "OBJECT_ID": "1993-036AG",
        "EPOCH": "2025-11-30T00:21:18.006336",
        "MEAN_MOTION": 14.43026506,
        "ECCENTRICITY": 0.0030503,
        "INCLINATION": 74.1754,
        "RA_OF_ASC_NODE": 61.0119,
        "ARG_OF_PERICENTER": 260.183,
        "MEAN_ANOMALY": 284.8371,
        "EPHEMERIS_TYPE": 0,
        "CLASSIFICATION_TYPE": "U",
        "NORAD_CAT_ID": 33791,
        "ELEMENT_SET_NO": 999,
        "REV_AT_EPOCH": 87868,
        "BSTAR": 0.00069972,
        "MEAN_MOTION_DOT": 2.332e-05,
        "MEAN_MOTION_DDOT": 0,
        "norad_id": 33791,
        "name": "COSMOS 2251 DEB",
        "group": "cosmos-2251-debris",
        "longitude_deg": NaN,
        "latitude_deg": NaN,
        "alt_km": NaN,
        "orbit_class": "HEO",
        "timestamp": "2025-11-30T09:33:02.606588+00:00"
      },
      "geometry": {
        "type": "Point",
        "coordinates": [
          NaN,
          NaN
        ]
      }
    },
    {
      "type": "Feature",
      "properties": {
        "OBJECT_NAME": "COSMOS 2251 DEB",
        "OBJECT_ID": "1993-036AH",
        "EPOCH": "2025-11-30T02:17:01.747104",
        "MEAN_MOTION": 13.45796543,
        "ECCENTRICITY": 0.042683,
        "INCLINATION": 73.9013,
        "RA_OF_ASC_NODE": 5.5364,
        "ARG_OF_PERICENTER": 72.5578,
        "MEAN_ANOMALY": 321.6492,
        "EPHEMERIS_TYPE": 0,
        "CLASSIFICATION_TYPE": "U",
        "NORAD_CAT_ID": 33792,
        "ELEMENT_SET_NO": 999,
        "REV_AT_EPOCH": 82272,
        "BSTAR": 0.00057946,
        "MEAN_MOTION_DOT": 5.81e-06,
        "MEAN_MOTION_DDOT": 0,
        "norad_id": 33792,
        "name": "COSMOS 2251 DEB",
        "group": "cosmos-2251-debris",
        "longitude_deg": NaN,
        "latitude_deg": NaN,
        "alt_km": NaN,
        "orbit_class": "HEO",
        "timestamp": "2025-11-30T09:33:02.606594+00:00"
      },
      "geometry": {
        "type": "Point",
        "coordinates": [
          NaN,
          NaN
        ]
      }
    },
    {
      "type": "Feature",
      "properties": {
        "OBJECT_NAME": "COSMOS 2251 DEB",
        "OBJECT_ID": "1993-036AJ",
        "EPOCH": "2025-11-29T22:58:28.375104",
        "MEAN_MOTION": 14.27658412,
        "ECCENTRICITY": 0.0078078,
        "INCLINATION": 73.9799,
        "RA_OF_ASC_NODE": 173.1475,
        "ARG_OF_PERICENTER": 325.7536,
        "MEAN_ANOMALY": 151.3714,
        "EPHEMERIS_TYPE": 0,
        "CLASSIFICATION_TYPE": "U",
        "NORAD_CAT_ID": 33793,
        "ELEMENT_SET_NO": 999,
        "REV_AT_EPOCH": 87024,
        "BSTAR": 0.00067339,
        "MEAN_MOTION_DOT": 1.688e-05,
        "MEAN_MOTION_DDOT": 0,
        "norad_id": 33793,
        "name": "COSMOS 2251 DEB",
        "group": "cosmos-2251-debris",
        "longitude_deg": NaN,
        "latitude_deg": NaN,
        "alt_km": NaN,
        "orbit_class": "HEO",
        "timestamp": "2025-11-30T09:33:02.606602+00:00"
      },
      "geometry": {
        "type": "Point",
        "coordinates": [
          NaN,
          NaN
        ]
      }
    },
    {
      "type": "Feature",
      "properties": {
        "OBJECT_NAME": "COSMOS 2251 DEB",
        "OBJECT_ID": "1993-036AL",
        "EPOCH": "2025-11-30T02:28:22.046016",
        "MEAN_MOTION": 15.0470672,
        "ECCENTRICITY": 0.0033853,
        "INCLINATION": 74.0309,
        "RA_OF_ASC_NODE": 102.6312,
        "ARG_OF_PERICENTER": 189.8246,
        "MEAN_ANOMALY": 343.4341,
        "EPHEMERIS_TYPE": 0,
        "CLASSIFICATION_TYPE": "U",
        "NORAD_CAT_ID": 33795,
        "ELEMENT_SET_NO": 999,
        "REV_AT_EPOCH": 89831,
        "BSTAR": 0.0019259,
        "MEAN_MOTION_DOT": 0.00027535,
        "MEAN_MOTION_DDOT": 0,
        "norad_id": 33795,
        "name": "COSMOS 2251 DEB",
        "group": "cosmos-2251-debris",
        "longitude_deg": NaN,
        "latitude_deg": NaN,
        "alt_km": NaN,
        "orbit_class": "HEO",
        "timestamp": "2025-11-30T09:33:02.606614+00:00"
      },
      "geometry": {
        "type": "Point",
        "coordinates": [
          NaN,
          NaN
        ]
      }
    }
  ]
}